CTC2_L_00130001-01
1 10000U 26577OB  26075.70041667  .00000000  00000+0  00000-0 0  9998
2 10000  60.0000   0.0000 0000000   0.0000   0.0000 13.03091871    13
CTC2_L_00130001-02
1 10001U 26354MV  26075.70041667  .00000000  00000+0  00000-0 0  9992
2 10001  60.0000   0.0000 0000000   0.0000  90.0000 13.03091871    13
CTC2_L_00130001-03
1 10002U 23944UL  26075.70041667  .00000000  00000+0  00000-0 0  9995
2 10002  60.0000   0.0000 0000000   0.0000 180.0000 13.03091871    14
CTC2_L_00130001-04
1 10003U 26916OY  26075.70041667  .00000000  00000+0  00000-0 0  9998
2 10003  60.0000   0.0000 0000000   0.0000 270.0000 13.03091871    15
CTC2_L_00130002-01
1 10004U 22614AG  26075.70041667  .00000000  00000+0  00000-0 0  9990
2 10004  60.0000  12.0000 0000000   0.0000  12.0000 13.03091871    13
CTC2_L_00130002-02
1 10005U 23869QH  26075.70041667  .00000000  00000+0  00000-0 0  9994
2 10005  60.0000  12.0000 0000000   0.0000 102.0000 13.03091871    14
CTC2_L_00130002-03
1 10006U 22068RX  26075.70041667  .00000000  00000+0  00000-0 0  9995
2 10006  60.0000  12.0000 0000000   0.0000 192.0000 13.03091871    14
CTC2_L_00130002-04
1 10007U 22310CT  26075.70041667  .00000000  00000+0  00000-0 0  9996
2 10007  60.0000  12.0000 0000000   0.0000 282.0000 13.03091871    15
CTC2_L_00130003-01
1 10008U 26947YZ  26075.70041667  .00000000  00000+0  00000-0 0  9997
2 10008  60.0000  24.0000 0000000   0.0000  24.0000 13.03091871    13
CTC2_L_00130003-02
1 10009U 26063TZ  26075.70041667  .00000000  00000+0  00000-0 0  9997
2 10009  60.0000  24.0000 0000000   0.0000 114.0000 13.03091871    14
CTC2_L_00130003-03
1 10010U 22400GM  26075.70041667  .00000000  00000+0  00000-0 0  9990
2 10010  60.0000  24.0000 0000000   0.0000 204.0000 13.03091871    16
CTC2_L_00130003-04
1 10011U 23216DD  26075.70041667  .00000000  00000+0  00000-0 0  9997
2 10011  60.0000  24.0000 0000000   0.0000 294.0000 13.03091871    16
CTC2_L_00130004-01
1 10012U 23461OG  26075.70041667  .00000000  00000+0  00000-0 0  9990
2 10012  60.0000  36.0000 0000000   0.0000  36.0000 13.03091871    14
CTC2_L_00130004-02
1 10013U 23962GJ  26075.70041667  .00000000  00000+0  00000-0 0  9997
2 10013  60.0000  36.0000 0000000   0.0000 126.0000 13.03091871    15
CTC2_L_00130004-03
1 10014U 26124HS  26075.70041667  .00000000  00000+0  00000-0 0  9991
2 10014  60.0000  36.0000 0000000   0.0000 216.0000 13.03091871    16
CTC2_L_00130004-04
1 10015U 26464SW  26075.70041667  .00000000  00000+0  00000-0 0  9999
2 10015  60.0000  36.0000 0000000   0.0000 306.0000 13.03091871    17
CTC2_L_00130005-01
1 10016U 24226QX  26075.70041667  .00000000  00000+0  00000-0 0  9994
2 10016  60.0000  48.0000 0000000   0.0000  48.0000 13.03091871    14
CTC2_L_00130005-02
1 10017U 22243FI  26075.70041667  .00000000  00000+0  00000-0 0  9992
2 10017  60.0000  48.0000 0000000   0.0000 138.0000 13.03091871    15
CTC2_L_00130005-03
1 10018U 23121M   26075.70041667  .00000000  00000+0  00000-0 0  9999
2 10018  60.0000  48.0000 0000000   0.0000 228.0000 13.03091871    16
CTC2_L_00130005-04
1 10019U 26651WW  26075.70041667  .00000000  00000+0  00000-0 0  9991
2 10019  60.0000  48.0000 0000000   0.0000 318.0000 13.03091871    17
CTC2_L_00130006-01
1 10020U 23204QF  26075.70041667  .00000000  00000+0  00000-0 0  9994
2 10020  60.0000  60.0000 0000000   0.0000  60.0000 13.03091871    17
CTC2_L_00130006-02
1 10021U 22030AW  26075.70041667  .00000000  00000+0  00000-0 0  9991
2 10021  60.0000  60.0000 0000000   0.0000 150.0000 13.03091871    18
CTC2_L_00130006-03
1 10022U 23898IZ  26075.70041667  .00000000  00000+0  00000-0 0  9995
2 10022  60.0000  60.0000 0000000   0.0000 240.0000 13.03091871    19
CTC2_L_00130006-04
1 10023U 24594PC  26075.70041667  .00000000  00000+0  00000-0 0  9990
2 10023  60.0000  60.0000 0000000   0.0000 330.0000 13.03091871    10
CTC2_L_00130007-01
1 10024U 24929PR  26075.70041667  .00000000  00000+0  00000-0 0  9993
2 10024  60.0000  72.0000 0000000   0.0000  72.0000 13.03091871    17
CTC2_L_00130007-02
1 10025U 23037DF  26075.70041667  .00000000  00000+0  00000-0 0  9993
2 10025  60.0000  72.0000 0000000   0.0000 162.0000 13.03091871    18
CTC2_L_00130007-03
1 10026U 25133FA  26075.70041667  .00000000  00000+0  00000-0 0  9993
2 10026  60.0000  72.0000 0000000   0.0000 252.0000 13.03091871    19
CTC2_L_00130007-04
1 10027U 23357MR  26075.70041667  .00000000  00000+0  00000-0 0  9990
2 10027  60.0000  72.0000 0000000   0.0000 342.0000 13.03091871    10
CTC2_L_00130008-01
1 10028U 25777AJ  26075.70041667  .00000000  00000+0  00000-0 0  9999
2 10028  60.0000  84.0000 0000000   0.0000  84.0000 13.03091871    17
CTC2_L_00130008-02
1 10029U 26492JD  26075.70041667  .00000000  00000+0  00000-0 0  9995
2 10029  60.0000  84.0000 0000000   0.0000 174.0000 13.03091871    18
CTC2_L_00130008-03
1 10030U 26369CV  26075.70041667  .00000000  00000+0  00000-0 0  9990
2 10030  60.0000  84.0000 0000000   0.0000 264.0000 13.03091871    10
CTC2_L_00130008-04
1 10031U 22820LF  26075.70041667  .00000000  00000+0  00000-0 0  9999
2 10031  60.0000  84.0000 0000000   0.0000 354.0000 13.03091871    11
CTC2_L_00130009-01
1 10032U 22592ZA  26075.70041667  .00000000  00000+0  00000-0 0  9996
2 10032  60.0000  96.0000 0000000   0.0000  96.0000 13.03091871    18
CTC2_L_00130009-02
1 10033U 22183O   26075.70041667  .00000000  00000+0  00000-0 0  9993
2 10033  60.0000  96.0000 0000000   0.0000 186.0000 13.03091871    19
CTC2_L_00130009-03
1 10034U 25205UT  26075.70041667  .00000000  00000+0  00000-0 0  9992
2 10034  60.0000  96.0000 0000000   0.0000 276.0000 13.03091871    10
CTC2_L_00130009-04
1 10035U 22726JI  26075.70041667  .00000000  00000+0  00000-0 0  9998
2 10035  60.0000  96.0000 0000000   0.0000   6.0000 13.03091871    12
CTC2_L_00130010-01
1 10036U 24508RY  26075.70041667  .00000000  00000+0  00000-0 0  9999
2 10036  60.0000 108.0000 0000000   0.0000 108.0000 13.03091871    10
CTC2_L_00130010-02
1 10037U 26782JJ  26075.70041667  .00000000  00000+0  00000-0 0  9996
2 10037  60.0000 108.0000 0000000   0.0000 198.0000 13.03091871    10
CTC2_L_00130010-03
1 10038U 26901QI  26075.70041667  .00000000  00000+0  00000-0 0  9990
2 10038  60.0000 108.0000 0000000   0.0000 288.0000 13.03091871    11
CTC2_L_00130010-04
1 10039U 25533YT  26075.70041667  .00000000  00000+0  00000-0 0  9991
2 10039  60.0000 108.0000 0000000   0.0000  18.0000 13.03091871    13
CTC2_L_00130011-01
1 10040U 22416UE  26075.70041667  .00000000  00000+0  00000-0 0  9990
2 10040  60.0000 120.0000 0000000   0.0000 120.0000 13.03091871    13
CTC2_L_00130011-02
1 10041U 22639DJ  26075.70041667  .00000000  00000+0  00000-0 0  9998
2 10041  60.0000 120.0000 0000000   0.0000 210.0000 13.03091871    14
CTC2_L_00130011-03
1 10042U 23899MQ  26075.70041667  .00000000  00000+0  00000-0 0  9998
2 10042  60.0000 120.0000 0000000   0.0000 300.0000 13.03091871    15
CTC2_L_00130011-04
1 10043U 23269QC  26075.70041667  .00000000  00000+0  00000-0 0  9990
2 10043  60.0000 120.0000 0000000   0.0000  30.0000 13.03091871    16
CTC2_L_00130012-01
1 10044U 26335RV  26075.70041667  .00000000  00000+0  00000-0 0  9998
2 10044  60.0000 132.0000 0000000   0.0000 132.0000 13.03091871    13
CTC2_L_00130012-02
1 10045U 23975XV  26075.70041667  .00000000  00000+0  00000-0 0  9996
2 10045  60.0000 132.0000 0000000   0.0000 222.0000 13.03091871    14
CTC2_L_00130012-03
1 10046U 25523ML  26075.70041667  .00000000  00000+0  00000-0 0  9998
2 10046  60.0000 132.0000 0000000   0.0000 312.0000 13.03091871    15
CTC2_L_00130012-04
1 10047U 23617FX  26075.70041667  .00000000  00000+0  00000-0 0  9991
2 10047  60.0000 132.0000 0000000   0.0000  42.0000 13.03091871    16
CTC2_L_00130013-01
1 10048U 26451VC  26075.70041667  .00000000  00000+0  00000-0 0  9991
2 10048  60.0000 144.0000 0000000   0.0000 144.0000 13.03091871    13
CTC2_L_00130013-02
1 10049U 23948IF  26075.70041667  .00000000  00000+0  00000-0 0  9990
2 10049  60.0000 144.0000 0000000   0.0000 234.0000 13.03091871    14
CTC2_L_00130013-03
1 10050U 23298HY  26075.70041667  .00000000  00000+0  00000-0 0  9990
2 10050  60.0000 144.0000 0000000   0.0000 324.0000 13.03091871    16
CTC2_L_00130013-04
1 10051U 23554US  26075.70041667  .00000000  00000+0  00000-0 0  9996
2 10051  60.0000 144.0000 0000000   0.0000  54.0000 13.03091871    17
CTC2_L_00130014-01
1 10052U 25851BM  26075.70041667  .00000000  00000+0  00000-0 0  9999
2 10052  60.0000 156.0000 0000000   0.0000 156.0000 13.03091871    14
CTC2_L_00130014-02
1 10053U 26006UH  26075.70041667  .00000000  00000+0  00000-0 0  9993
2 10053  60.0000 156.0000 0000000   0.0000 246.0000 13.03091871    15
CTC2_L_00130014-03
1 10054U 22956CL  26075.70041667  .00000000  00000+0  00000-0 0  9994
2 10054  60.0000 156.0000 0000000   0.0000 336.0000 13.03091871    16
CTC2_L_00130014-04
1 10055U 26408NG  26075.70041667  .00000000  00000+0  00000-0 0  9991
2 10055  60.0000 156.0000 0000000   0.0000  66.0000 13.03091871    17
CTC2_L_00130015-01
1 10056U 23318DI  26075.70041667  .00000000  00000+0  00000-0 0  9999
2 10056  60.0000 168.0000 0000000   0.0000 168.0000 13.03091871    14
CTC2_L_00130015-02
1 10057U 23645CE  26075.70041667  .00000000  00000+0  00000-0 0  9993
2 10057  60.0000 168.0000 0000000   0.0000 258.0000 13.03091871    15
CTC2_L_00130015-03
1 10058U 24013UI  26075.70041667  .00000000  00000+0  00000-0 0  9994
2 10058  60.0000 168.0000 0000000   0.0000 348.0000 13.03091871    16
CTC2_L_00130015-04
1 10059U 23686KA  26075.70041667  .00000000  00000+0  00000-0 0  9990
2 10059  60.0000 168.0000 0000000   0.0000  78.0000 13.03091871    17
CTC2_L_00130016-01
1 10060U 22398KJ  26075.70041667  .00000000  00000+0  00000-0 0  9991
2 10060  60.0000 180.0000 0000000   0.0000 180.0000 13.03091871    17
CTC2_L_00130016-02
1 10061U 24644QI  26075.70041667  .00000000  00000+0  00000-0 0  9998
2 10061  60.0000 180.0000 0000000   0.0000 270.0000 13.03091871    18
